OBJECT_NAME,OBJECT_ID,EPOCH,MEAN_MOTION,ECCENTRICITY,INCLINATION,RA_OF_ASC_NODE,ARG_OF_PERICENTER,MEAN_ANOMALY,EPHEMERIS_TYPE,CLASSIFICATION_TYPE,NORAD_CAT_ID,ELEMENT_SET_NO,REV_AT_EPOCH,BSTAR,MEAN_MOTION_DOT,MEAN_MOTION_DDOT
DMSP 5D-3 F16 (USA 172),2003-048A,2026-06-03T20:27:08.000352,14.14481806,.00070431,98.9894,178.5918,175.6429,174.4554,0,U,28054,999,16759,.31665122E-4,.15E-6,0
METEOSAT-9 (MSG-2),2005-049B,2026-06-03T20:40:02.996256,1.00267174,.0002358,9.3308,54.2974,37.5703,156.1962,0,U,28912,999,686,0,.133E-5,0
DMSP 5D-3 F17 (USA 191),2006-050A,2026-06-03T21:01:22.794528,14.14990990,.00113252,98.7378,161.7184,93.3870,266.8600,0,U,29522,999,1054,.46350861E-4,.47E-6,0
FENGYUN 3A,2008-026A,2026-06-03T10:39:20.171808,14.19568113,.00089901,98.6881,95.5346,160.5127,199.6395,0,U,32958,999,93345,.67514327E-4,.99E-6,0
GOES 14,2009-033A,2026-06-03T16:01:29.864064,1.00115798,.00021595,1.6553,83.2028,358.6379,200.1950,0,U,35491,999,645,0,-.222E-5,0
DMSP 5D-3 F18 (USA 210),2009-057A,2026-06-03T20:18:52.412544,14.14888925,.00099543,98.9032,135.6449,292.0113,68.0002,0,U,35951,999,85770,.1619307E-3,.268E-5,0
EWS-G2 (GOES 15),2010-008A,2026-06-03T20:45:10.004832,1.00276059,.00055032,1.2412,83.0864,34.9157,149.1491,0,U,36411,999,5950,0,.31E-6,0
COMS 1,2010-032A,2026-06-01T17:43:38.675712,1.00271905,.00010648,4.7700,75.5552,351.7830,216.9341,0,U,36744,999,5093,0,-.334E-5,0
FENGYUN 3B,2010-059A,2026-06-03T22:47:59.171424,14.14836935,.00212134,98.9622,200.9074,222.4069,260.0579,0,U,37214,999,80555,-.10167912E-3,-.242E-5,0
SUOMI NPP,2011-061A,2026-06-03T21:03:52.661376,14.19514463,.00022257,98.7951,95.8450,35.2885,324.8438,0,U,37849,999,75655,.65983125E-4,.95E-6,0
METEOSAT-10 (MSG-3),2012-035B,2026-06-03T22:09:49.709664,1.00275518,.00018566,4.6402,61.0788,337.7141,186.1957,0,U,38552,999,5072,0,.5E-7,0
METOP-B,2012-049A,2026-06-03T21:15:20.057184,14.21428927,.00029588,98.6510,206.6496,49.6336,310.5099,0,U,38771,999,71137,.76238368E-4,.123E-5,0
INSAT-3D,2013-038B,2026-06-03T21:04:02.715744,1.00269635,.00009375,1.8916,82.7089,346.3856,268.7609,0,U,39216,999,4694,0,-.327E-5,0
FENGYUN 3C,2013-052A,2026-06-03T21:33:52.816608,14.15751834,.00157865,98.4980,129.3841,63.6427,296.6366,0,U,39260,999,65668,.79027481E-4,.114E-5,0
METEOR-M 2,2014-037A,2026-06-03T21:53:39.126624,14.21457844,.00070481,98.5108,131.1213,76.3124,283.8838,0,U,40069,999,61743,.14960811E-3,.285E-5,0
HIMAWARI-8,2014-060A,2026-06-03T21:07:09.916896,1.00272840,.00009823,0.0157,359.2856,87.9111,262.6021,0,U,40267,999,4262,0,-.263E-5,0
FENGYUN 2G,2014-090A,2026-06-03T19:12:45.107712,1.00279146,.0003441,5.6052,72.9774,153.7233,53.2439,0,U,40367,999,4186,0,-.292E-5,0
METEOSAT-11 (MSG-4),2015-034A,2026-06-03T22:12:26.959392,1.00276165,.00016282,3.1692,71.1826,3.4772,160.1821,0,U,40732,999,708,0,.74E-6,0
ELEKTRO-L 2,2015-074A,2026-06-03T01:33:22.575168,1.00272380,.00012833,6.6592,70.6949,281.6013,268.0921,0,U,41105,999,3836,0,-.108E-5,0
SENTINEL-3A,2016-011A,2026-06-03T21:24:19.297728,14.26736125,.0001305,98.6251,222.4659,106.0870,254.0454,0,U,41335,999,53616,.71940468E-4,.13E-5,0
INSAT-3DR,2016-054A,2026-06-03T19:05:30.070752,1.00271325,.00103209,0.1395,86.9553,189.2658,336.4092,0,U,41752,999,3568,0,-.65E-6,0
HIMAWARI-9,2016-064A,2026-06-03T21:07:09.916896,1.00270670,.00015639,0.0411,169.8886,311.0224,228.9789,0,U,41836,999,3507,0,-.263E-5,0
GOES 16,2016-071A,2026-06-03T21:39:51.781824,1.00271246,.00006928,0.3065,85.6559,317.4563,69.5561,0,U,41866,999,3497,0,-.79E-6,0
FENGYUN 4A,2016-077A,2026-06-03T22:45:01.442304,1.00276726,.00081649,2.2896,80.4279,151.6857,125.2600,0,U,41882,999,3479,0,-.345E-5,0
CYGFM05,2016-078A,2026-06-03T21:38:40.657344,15.56049764,.00077181,34.9582,348.5246,15.4997,344.5962,0,U,41884,999,52668,.3410926E-3,.24619E-3,0
CYGFM04,2016-078B,2026-06-03T20:22:49.685088,15.60725588,.00062741,34.9334,317.2233,59.2059,300.9283,0,U,41885,999,52691,.3721242E-3,.32093E-3,0
CYGFM02,2016-078C,2026-06-03T19:27:55.369728,15.63583658,.00072427,34.9417,312.3956,61.1306,299.0146,0,U,41886,999,52707,.3964556E-3,.38278E-3,0
CYGFM01,2016-078D,2026-06-03T21:30:38.864160,15.56704983,.00075135,34.9412,349.7250,9.4711,350.6153,0,U,41887,999,52663,.34649254E-3,.25632E-3,0
CYGFM08,2016-078E,2026-06-03T21:04:36.576768,15.59280840,.00083314,34.9441,329.7687,42.3043,317.8324,0,U,41888,999,52689,.36744529E-3,.29991E-3,0
CYGFM07,2016-078G,2026-06-03T20:07:00.473952,15.59381184,.0006662,34.9457,318.3886,58.5749,301.5627,0,U,41890,999,52691,.3724937E-3,.30504E-3,0
CYGFM03,2016-078H,2026-06-03T20:57:20.525472,15.59378968,.00062426,34.9413,320.0972,45.5037,314.6198,0,U,41891,999,52689,.36657343E-3,.3001E-3,0
